{
  "norad_id": 66356,
  "name": "STARLINK-35851",
  "history": [
    {
      "epoch": "2026-03-28T10:32:29.937696",
      "apogee_km": 476.06281333974493,
      "perigee_km": 474.3830548199021,
      "latitude_deg": -48.20148950799175,
      "longitude_deg": 137.76659744000062,
      "semi_major_axis_km": 6853.359934079824,
      "eccentricity": 0.00012255,
      "inclination_deg": 53.1589,
      "raan_deg": 145.5547,
      "arg_perigee_deg": 82.5751,
      "mean_anomaly_deg": 277.5389,
      "mean_motion_rev_day": 15.30197366
    }
  ]
}